LEO EXPRESS 1           
1 58301U 23174AX  26068.76789509  .00017303  00000+0  49741-3 0  9998
2 58301  97.5222 152.4092 0078735 115.9210 245.0174 15.32756831129655
STARLINK-34120          
1 63898U 25095J   26068.75807320  .00041047  00000+0  14887-2 0  9994
2 63898  43.0014 175.3680 0001716 266.8554  93.2101 15.27671911 47804
